0 SCOUT A DEB
1 02580U 66076C   13282.47420263  .00000191  00000-0  17718-3 0  8889
2 02580 089.1555 342.4496 0092839 303.9041 119.2541 13.76598454354505
0 SCOUT A DEB
1 02580U 66076C   13287.13048455  .00000245  00000-0  23059-3 0  8904
2 02580 089.1545 342.0344 0092817 289.5309 154.9553 13.76600020355147
0 SCOUT A DEB
1 02580U 66076C   13289.45926418  .00000251  00000-0  23674-3 0  8916
2 02580 089.1539 341.8267 0092861 282.3486 175.9774 13.76601671355463
0 SCOUT A DEB
1 02580U 66076C   13291.64343122  .00000251  00000-0  23663-3 0  8924
2 02580 089.1534 341.6315 0092894 275.6122 200.3350 13.76602814355764
0 SCOUT A DEB
1 02580U 66076C   13295.11944154  .00000265  00000-0  25027-3 0  8934
2 02580 089.1533 341.3208 0093030 264.8983 146.8615 13.76604800356248
